start=new Date('2022-05-10T00:00:00.000Z').valueOf();
sats=[{"ELEMENT_SET_NO":"999","ARG_OF_PERICENTER":"51.2751","MEAN_MOTION":"15.06406752","OBJECT_TYPE":"PAYLOAD","DECAY_DATE":null,"CLASSIFICATION_TYPE":"U","MEAN_ELEMENT_THEORY":"SGP4","GP_ID":"203141506","RCS_SIZE":"LARGE","MEAN_MOTION_DOT":"0.00001362","PERIOD":"95.592","REF_FRAME":"TEME","SITE":"AFETR","LAUNCH_DATE":"2021-03-04","OBJECT_NAME":"STARLINK-2175","TLE_LINE2":"2 47757  53.0542  15.7207 0001734  51.2751 308.8392 15.06406752 66730","OBJECT_ID":"2021-017AM","EPOCH":"2022-05-09T20:36:11.020032","COUNTRY_CODE":"US","REV_AT_EPOCH":"6673","NORAD_CAT_ID":"47757","APOAPSIS":"548.394","FILE":"3438010","CENTER_NAME":"EARTH","MEAN_ANOMALY":"308.8392","TIME_SYSTEM":"UTC","EPHEMERIS_TYPE":"0","TLE_LINE1":"1 47757U 21017AM  22129.85846088  .00001362  00000-0  11029-3 0  9992","RA_OF_ASC_NODE":"15.7207","INCLINATION":"53.0542","ECCENTRICITY":"0.00017340","BSTAR":"0.00011029000000","SEMIMAJOR_AXIS":"6925.328","PERIAPSIS":"545.992","MEAN_MOTION_DDOT":"0.0000000000000"},{"MEAN_MOTION_DDOT":"0.0000000000000","PERIAPSIS":"545.937","SEMIMAJOR_AXIS":"6925.334","BSTAR":"0.00012236000000","ECCENTRICITY":"0.00018220","INCLINATION":"53.0566","RA_OF_ASC_NODE":"25.5665","TLE_LINE1":"1 47760U 21017AQ  22129.89070793  .00001542  00000-0  12236-3 0  9993","TIME_SYSTEM":"UTC","EPHEMERIS_TYPE":"0","CENTER_NAME":"EARTH","MEAN_ANOMALY":"309.6586","FILE":"3438010","APOAPSIS":"548.461","NORAD_CAT_ID":"47760","REV_AT_EPOCH":"6663","EPOCH":"2022-05-09T21:22:37.165152","COUNTRY_CODE":"US","OBJECT_ID":"2021-017AQ","TLE_LINE2":"2 47760  53.0566  25.5665 0001822  50.4563 309.6586 15.06404758 66634","REF_FRAME":"TEME","OBJECT_NAME":"STARLINK-2178","SITE":"AFETR","LAUNCH_DATE":"2021-03-04","PERIOD":"95.592","RCS_SIZE":"LARGE","MEAN_MOTION_DOT":"0.00001542","GP_ID":"203142260","CLASSIFICATION_TYPE":"U","MEAN_ELEMENT_THEORY":"SGP4","OBJECT_TYPE":"PAYLOAD","DECAY_DATE":null,"ELEMENT_SET_NO":"999","MEAN_MOTION":"15.06404758","ARG_OF_PERICENTER":"50.4563"},{"BSTAR":"0.00010555000000","SEMIMAJOR_AXIS":"6925.336","PERIAPSIS":"546.159","MEAN_MOTION_DDOT":"0.0000000000000","INCLINATION":"53.0565","ECCENTRICITY":"0.00015050","MEAN_ANOMALY":"283.9448","CENTER_NAME":"EARTH","EPHEMERIS_TYPE":"0","TIME_SYSTEM":"UTC","TLE_LINE1":"1 47761U 21017AR  22129.92111925  .00001291  00000-0  10555-3 0  9994","RA_OF_ASC_NODE":"15.4354","REV_AT_EPOCH":"6675","APOAPSIS":"548.243","NORAD_CAT_ID":"47761","FILE":"3438010","OBJECT_ID":"2021-017AR","COUNTRY_CODE":"US","EPOCH":"2022-05-09T22:06:24.703200","OBJECT_NAME":"STARLINK-2179","SITE":"AFETR","LAUNCH_DATE":"2021-03-04","REF_FRAME":"TEME","TLE_LINE2":"2 47761  53.0565  15.4354 0001505  76.1709 283.9448 15.06404099 66754","MEAN_ELEMENT_THEORY":"SGP4","CLASSIFICATION_TYPE":"U","GP_ID":"203141998","MEAN_MOTION_DOT":"0.00001291","RCS_SIZE":"LARGE","PERIOD":"95.592","MEAN_MOTION":"15.06404099","ARG_OF_PERICENTER":"76.1709","ELEMENT_SET_NO":"999","DECAY_DATE":null,"OBJECT_TYPE":"PAYLOAD"},{"TLE_LINE1":"1 47762U 21017AS  22129.88008658 -.00002018  00000-0 -11655-3 0  9990","RA_OF_ASC_NODE":"30.6204","MEAN_ANOMALY":"303.4546","CENTER_NAME":"EARTH","EPHEMERIS_TYPE":"0","TIME_SYSTEM":"UTC","FILE":"3438010","REV_AT_EPOCH":"6655","APOAPSIS":"548.783","NORAD_CAT_ID":"47762","MEAN_MOTION_DDOT":"0.0000000000000","BSTAR":"-0.00011655000000","SEMIMAJOR_AXIS":"6925.300","PERIAPSIS":"545.548","ECCENTRICITY":"0.00023360","INCLINATION":"53.0564","MEAN_MOTION_DOT":"-0.00002018","RCS_SIZE":"LARGE","PERIOD":"95.591","MEAN_ELEMENT_THEORY":"SGP4","CLASSIFICATION_TYPE":"U","GP_ID":"203140761","OBJECT_TYPE":"PAYLOAD","DECAY_DATE":null,"MEAN_MOTION":"15.06415704","ARG_OF_PERICENTER":"56.6667","ELEMENT_SET_NO":"999","COUNTRY_CODE":"US","EPOCH":"2022-05-09T21:07:19.480512","OBJECT_ID":"2021-017AS","OBJECT_NAME":"STARLINK-2180","SITE":"AFETR","LAUNCH_DATE":"2021-03-04","REF_FRAME":"TEME","TLE_LINE2":"2 47762  53.0564  30.6204 0002336  56.6667 303.4546 15.06415704 66556"},{"OBJECT_ID":"2021-017AT","COUNTRY_CODE":"US","EPOCH":"2022-05-09T23:06:45.604512","SITE":"AFETR","OBJECT_NAME":"STARLINK-2181","LAUNCH_DATE":"2021-03-04","REF_FRAME":"TEME","TLE_LINE2":"2 47763  53.0561  20.2483 0001891  63.3620 296.7562 15.06435391 66687","MEAN_ELEMENT_THEORY":"SGP4","CLASSIFICATION_TYPE":"U","GP_ID":"203141008","MEAN_MOTION_DOT":"-0.00003888","RCS_SIZE":"LARGE","PERIOD":"95.590","ARG_OF_PERICENTER":"63.3620","MEAN_MOTION":"15.06435391","ELEMENT_SET_NO":"999","DECAY_DATE":null,"OBJECT_TYPE":"PAYLOAD","BSTAR":"-0.00024201000000","PERIAPSIS":"545.796","SEMIMAJOR_AXIS":"6925.240","MEAN_MOTION_DDOT":"0.0000000000000","INCLINATION":"53.0561","ECCENTRICITY":"0.00018910","MEAN_ANOMALY":"296.7562","CENTER_NAME":"EARTH","EPHEMERIS_TYPE":"0","TIME_SYSTEM":"UTC","TLE_LINE1":"1 47763U 21017AT  22129.96302783 -.00003888  00000-0 -24201-3 0  9993","RA_OF_ASC_NODE":"20.2483","REV_AT_EPOCH":"6668","APOAPSIS":"548.415","NORAD_CAT_ID":"47763","FILE":"3438010"},{"CENTER_NAME":"EARTH","MEAN_ANOMALY":"289.8762","TIME_SYSTEM":"UTC","EPHEMERIS_TYPE":"0","TLE_LINE1":"1 47764U 21017AU  22129.86629059  .00000804  00000-0  72895-4 0  9997","RA_OF_ASC_NODE":"30.6755","REV_AT_EPOCH":"6590","NORAD_CAT_ID":"47764","APOAPSIS":"548.359","FILE":"3437609","BSTAR":"0.00007289500000","PERIAPSIS":"546.077","SEMIMAJOR_AXIS":"6925.353","MEAN_MOTION_DDOT":"0.0000000000000","INCLINATION":"53.0574","ECCENTRICITY":"0.00016480","CLASSIFICATION_TYPE":"U","MEAN_ELEMENT_THEORY":"SGP4","GP_ID":"203111152","RCS_SIZE":"LARGE","MEAN_MOTION_DOT":"0.00000804","PERIOD":"95.592","ELEMENT_SET_NO":"999","MEAN_MOTION":"15.06398500","ARG_OF_PERICENTER":"70.2404","DECAY_DATE":null,"OBJECT_TYPE":"PAYLOAD","OBJECT_ID":"2021-017AU","EPOCH":"2022-05-09T20:47:27.506976","COUNTRY_CODE":"US","REF_FRAME":"TEME","OBJECT_NAME":"STARLINK-2182","SITE":"AFETR","LAUNCH_DATE":"2021-03-04","TLE_LINE2":"2 47764  53.0574  30.6755 0001648  70.2404 289.8762 15.06398500 65905"},{"REV_AT_EPOCH":"6652","NORAD_CAT_ID":"47766","APOAPSIS":"548.543","FILE":"3438010","CENTER_NAME":"EARTH","MEAN_ANOMALY":"303.4712","TIME_SYSTEM":"UTC","EPHEMERIS_TYPE":"0","TLE_LINE1":"1 47766U 21017AW  22129.88472008  .00000666  00000-0  63578-4 0  9995","RA_OF_ASC_NODE":"30.5942","INCLINATION":"53.0564","ECCENTRICITY":"0.00019390","BSTAR":"0.00006357800000","PERIAPSIS":"545.857","SEMIMAJOR_AXIS":"6925.335","MEAN_MOTION_DDOT":"0.0000000000000","ELEMENT_SET_NO":"999","MEAN_MOTION":"15.06404431","ARG_OF_PERICENTER":"56.6462","OBJECT_TYPE":"PAYLOAD","DECAY_DATE":null,"CLASSIFICATION_TYPE":"U","MEAN_ELEMENT_THEORY":"SGP4","GP_ID":"203142498","RCS_SIZE":"LARGE","MEAN_MOTION_DOT":"0.00000666","PERIOD":"95.592","REF_FRAME":"TEME","SITE":"AFETR","OBJECT_NAME":"STARLINK-2184","LAUNCH_DATE":"2021-03-04","TLE_LINE2":"2 47766  53.0564  30.5942 0001939  56.6462 303.4712 15.06404431 66526","OBJECT_ID":"2021-017AW","EPOCH":"2022-05-09T21:13:59.814912","COUNTRY_CODE":"US"},{"TLE_LINE2":"2 47767  53.0567  15.4776 0001862  72.5826 287.5366 15.06404108 66802","REF_FRAME":"TEME","LAUNCH_DATE":"2021-03-04","SITE":"AFETR","OBJECT_NAME":"STARLINK-2185","OBJECT_ID":"2021-017AX","EPOCH":"2022-05-09T21:50:29.202144","COUNTRY_CODE":"US","ELEMENT_SET_NO":"999","ARG_OF_PERICENTER":"72.5826","MEAN_MOTION":"15.06404108","OBJECT_TYPE":"PAYLOAD","DECAY_DATE":null,"GP_ID":"203141260","CLASSIFICATION_TYPE":"U","MEAN_ELEMENT_THEORY":"SGP4","PERIOD":"95.592","MEAN_MOTION_DOT":"0.00001084","RCS_SIZE":"LARGE","INCLINATION":"53.0567","ECCENTRICITY":"0.00018620","SEMIMAJOR_AXIS":"6925.336","PERIAPSIS":"545.911","BSTAR":"0.00009163600000","MEAN_MOTION_DDOT":"0.0000000000000","APOAPSIS":"548.490","NORAD_CAT_ID":"47767","REV_AT_EPOCH":"6680","FILE":"3438010","TIME_SYSTEM":"UTC","EPHEMERIS_TYPE":"0","CENTER_NAME":"EARTH","MEAN_ANOMALY":"287.5366","RA_OF_ASC_NODE":"15.4776","TLE_LINE1":"1 47767U 21017AX  22129.91006021  .00001084  00000-0  91636-4 0  9999"},{"MEAN_ELEMENT_THEORY":"SGP4","CLASSIFICATION_TYPE":"U","GP_ID":"203141507","RCS_SIZE":"LARGE","MEAN_MOTION_DOT":"0.00000862","PERIOD":"95.592","MEAN_MOTION":"15.06395844","ARG_OF_PERICENTER":"64.7700","ELEMENT_SET_NO":"999","OBJECT_TYPE":"PAYLOAD","DECAY_DATE":null,"OBJECT_ID":"2021-017AY","COUNTRY_CODE":"US","EPOCH":"2022-05-09T21:55:06.096000","LAUNCH_DATE":"2021-03-04","SITE":"AFETR","OBJECT_NAME":"STARLINK-2189","REF_FRAME":"TEME","TLE_LINE2":"2 47768  53.0565  30.4690 0001625  64.7700 295.3457 15.06395844 66561","MEAN_ANOMALY":"295.3457","CENTER_NAME":"EARTH","EPHEMERIS_TYPE":"0","TIME_SYSTEM":"UTC","TLE_LINE1":"1 47768U 21017AY  22129.91326500  .00000862  00000-0  76747-4 0  9996","RA_OF_ASC_NODE":"30.4690","REV_AT_EPOCH":"6656","APOAPSIS":"548.352","NORAD_CAT_ID":"47768","FILE":"3438010","BSTAR":"0.00007674700000","SEMIMAJOR_AXIS":"6925.361","PERIAPSIS":"546.101","MEAN_MOTION_DDOT":"0.0000000000000","INCLINATION":"53.0565","ECCENTRICITY":"0.00016250"},{"OBJECT_ID":"2021-017AZ","EPOCH":"2022-05-09T21:26:36.544992","COUNTRY_CODE":"US","REF_FRAME":"TEME","LAUNCH_DATE":"2021-03-04","SITE":"AFETR","OBJECT_NAME":"STARLINK-2192","TLE_LINE2":"2 47769  53.0584 355.5435 0001704  65.5714 294.5453 15.06398235 66398","CLASSIFICATION_TYPE":"U","MEAN_ELEMENT_THEORY":"SGP4","GP_ID":"203111185","RCS_SIZE":"LARGE","MEAN_MOTION_DOT":"0.00000497","PERIOD":"95.592","ELEMENT_SET_NO":"999","ARG_OF_PERICENTER":"65.5714","MEAN_MOTION":"15.06398235","OBJECT_TYPE":"PAYLOAD","DECAY_DATE":null,"BSTAR":"0.00005223700000","PERIAPSIS":"546.039","SEMIMAJOR_AXIS":"6925.354","MEAN_MOTION_DDOT":"0.0000000000000","INCLINATION":"53.0584","ECCENTRICITY":"0.00017040","CENTER_NAME":"EARTH","MEAN_ANOMALY":"294.5453","TIME_SYSTEM":"UTC","EPHEMERIS_TYPE":"0","TLE_LINE1":"1 47769U 21017AZ  22129.89347853  .00000497  00000-0  52237-4 0  9990","RA_OF_ASC_NODE":"355.5435","REV_AT_EPOCH":"6639","NORAD_CAT_ID":"47769","APOAPSIS":"548.399","FILE":"3437611"}];
